[{"OBJECT_NAME":"GEESAT-5 06","OBJECT_ID":"2025-201F","EPOCH":"2026-03-09T12:12:25.250112","MEAN_MOTION":14.83771772,"ECCENTRICITY":0.00144332,"INCLINATION":49.9906,"RA_OF_ASC_NODE":141.562,"ARG_OF_PERICENTER":298.4848,"MEAN_ANOMALY":61.4637,"EPHEMERIS_TYPE":0,"CLASSIFICATION_TYPE":"U","NORAD_CAT_ID":65555,"ELEMENT_SET_NO":999,"REV_AT_EPOCH":2698,"BSTAR":0.00016353536,"MEAN_MOTION_DOT":1.141e-5,"MEAN_MOTION_DDOT":0},{"OBJECT_NAME":"NOAA 16 DEB","OBJECT_ID":"2000-055RX","EPOCH":"2026-03-08T00:25:26.326848","MEAN_MOTION":14.76862855,"ECCENTRICITY":0.00219792,"INCLINATION":98.9311,"RA_OF_ASC_NODE":270.5735,"ARG_OF_PERICENTER":48.8979,"MEAN_ANOMALY":311.4121,"EPHEMERIS_TYPE":0,"CLASSIFICATION_TYPE":"U","NORAD_CAT_ID":42379,"ELEMENT_SET_NO":999,"REV_AT_EPOCH":52128,"BSTAR":0.0055241126,"MEAN_MOTION_DOT":0.00039117,"MEAN_MOTION_DDOT":0}]
